[{"OBJECT_NAME":"STARLINK-2045","OBJECT_ID":"2021-005E","EPOCH":"2026-03-09T22:36:08.242848","MEAN_MOTION":15.30186335,"ECCENTRICITY":0.00012292,"INCLINATION":53.1622,"RA_OF_ASC_NODE":359.4892,"ARG_OF_PERICENTER":91.5394,"MEAN_ANOMALY":268.5747,"EPHEMERIS_TYPE":0,"CLASSIFICATION_TYPE":"U","NORAD_CAT_ID":47353,"ELEMENT_SET_NO":999,"REV_AT_EPOCH":28394,"BSTAR":-6.3748024e-5,"MEAN_MOTION_DOT":-2.246e-5,"MEAN_MOTION_DDOT":0},{"OBJECT_NAME":"EXO-0","OBJECT_ID":"2023-174DK","EPOCH":"2026-03-09T17:03:04.419648","MEAN_MOTION":15.32821991,"ECCENTRICITY":0.00098779,"INCLINATION":97.3864,"RA_OF_ASC_NODE":148.9039,"ARG_OF_PERICENTER":157.1125,"MEAN_ANOMALY":203.0559,"EPHEMERIS_TYPE":0,"CLASSIFICATION_TYPE":"U","NORAD_CAT_ID":59175,"ELEMENT_SET_NO":999,"REV_AT_EPOCH":12979,"BSTAR":0.00036716083,"MEAN_MOTION_DOT":0.00011582,"MEAN_MOTION_DDOT":0}]
